[{"OBJECT_NAME":"STARLINK-3682","OBJECT_ID":"2022-029BE","EPOCH":"2026-03-09T09:13:33.119904","MEAN_MOTION":15.08848073,"ECCENTRICITY":0.00014354,"INCLINATION":53.217,"RA_OF_ASC_NODE":70.4893,"ARG_OF_PERICENTER":76.5583,"MEAN_ANOMALY":283.5569,"EPHEMERIS_TYPE":0,"CLASSIFICATION_TYPE":"U","NORAD_CAT_ID":52140,"ELEMENT_SET_NO":999,"REV_AT_EPOCH":22089,"BSTAR":5.2078287e-5,"MEAN_MOTION_DOT":5.41e-6,"MEAN_MOTION_DDOT":0},{"OBJECT_NAME":"OBJECT L","OBJECT_ID":"2024-205L","EPOCH":"2026-03-07T03:22:40.585728","MEAN_MOTION":15.10822925,"ECCENTRICITY":0.00547724,"INCLINATION":97.4213,"RA_OF_ASC_NODE":140.2188,"ARG_OF_PERICENTER":346.2042,"MEAN_ANOMALY":13.7688,"EPHEMERIS_TYPE":0,"CLASSIFICATION_TYPE":"U","NORAD_CAT_ID":61904,"ELEMENT_SET_NO":999,"REV_AT_EPOCH":7282,"BSTAR":0.00079283043,"MEAN_MOTION_DOT":0.00013606,"MEAN_MOTION_DDOT":0}]
